HST                     
1 20580U 90037B   26189.72127744  .00004866  00000+0  15029-3 0  9997
2 20580  28.4736 293.3726 0001994  41.8079 318.2669 15.31013397791871
POLAR                   
1 23802U 96013A   26188.83341926  .00000206  00000+0  00000+0 0  9991
2 23802  79.8803 226.8071 6491222 208.3689  91.2224  1.29846096145128
SWAS                    
1 25560U 98071A   26190.01343515  .00001623  00000+0  10690-3 0  9993
2 25560  69.8940 171.2275 0008179 237.0602 122.9777 15.09724094500568
CXO                     
1 25867U 99040B   26193.17780626  .00000693  00000+0  00000+0 0  9994
2 25867  56.5436 115.9395 7801621 310.0685   0.3422  0.37804200 17418
XMM-NEWTON              
1 25989U 99066A   26191.28725898  .00000104  00000+0  00000+0 0  9994
2 25989  64.3678 282.6911 4669316  64.5120   0.0817  0.50123471 23117
TERRA                   
1 25994U 99068A   26190.27644859  .00000261  00000+0  62003-4 0  9997
2 25994  97.9444 238.9456 0003146 134.5499 298.5628 14.61120751412830
CLUSTER II-FM7 (SAMBA)  
1 26410U 00041A   26190.44939577  .00010356  00000+0  00000+0 0  9997
2 26410 149.8605  54.9301 9081562 272.3489 359.6364  0.44874124 20413
CLUSTER II-FM8 (TANGO)  
1 26464U 00045B   26188.69922144  .00008170  00000+0  00000+0 0  9997
2 26464 150.0768  55.7803 9084327 273.0277   2.3481  0.44419476 20403
ODIN                    
1 26702U 01007A   26190.06702813  .00259510  00000+0  10280-2 0  9994
2 26702  97.3749 232.5556 0005044 142.3922 217.7703 15.86075988392853
TIMED                   
1 26998U 01055B   26189.95269642  .00000764  00000+0  72913-4 0  9996
2 26998  74.0661 191.1922 0002090 307.0120  53.0872 14.95335991334070
CORIOLIS                
1 27640U 03001A   26189.97084571  .00000063  00000+0  50119-4 0  9998
2 27640  98.7131 196.5232 0014681 146.2477 213.9637 14.19950561217315
SORCE                   
1 27651U 03004A   26190.18811890  .00001988  00000+0  15248-3 0  9990
2 27651  39.9897 136.1414 0018235 213.8295 146.1336 15.03822523275219
MOST                    
1 27843U 03031D   26189.96385954  .00000037  00000+0  37141-4 0  9995
2 27843  98.7049 197.3860 0009717 182.9402 177.1720 14.21326837193800
SCISAT 1                
1 27858U 03036A   26190.24012072  .00000488  00000+0  66988-4 0  9998
2 27858  73.9301 127.5267 0007677 196.7508 163.3417 14.81474461234710
SWIFT                   
1 28485U 04047A   26190.17923567  .00052583  00000+0  39694-3 0  9996
2 28485  20.5531  14.9835 0001144 306.1648  53.8692 15.70638079190327
HINODE (SOLAR-B)        
1 29479U 06041A   26189.91924299  .00000459  00000+0  87254-4 0  9990
2 29479  98.0547 205.7514 0016557 215.0624 144.9492 14.68652804 58060
SHIJIAN-6 02A (SJ-6 02A)
1 29505U 06046A   26190.31957096  .00003567  00000+0  18296-3 0  9994
2 29505  97.6354 231.5536 0004488  76.1300 284.0432 15.17202741 75626
SHIJIAN-6 02B (SJ-6 02B)
1 29506U 06046B   26190.33945127  .00000867  00000+0  71757-4 0  9991
2 29506  97.7154 219.2613 0014125 355.8554   4.2551 15.01430805 74060
FGRST (GLAST)           
1 33053U 08029A   26190.03213974  .00002452  00000+0  84708-4 0  9993
2 33053  25.5827  52.7873 0007811 222.8473 137.1457 15.24053571999178
SDO                     
1 36395U 10005A   26189.29621407 -.00000082  00000+0  00000+0 0  9998
2 36395  34.6924  86.0231 0001701  55.0520 149.4946  1.00269565 60278
CRYOSAT 2               
1 36508U 10013A   26190.27380180  .00000135  00000+0  32795-4 0  9992
2 36508  92.0358 282.6710 0002305  97.8699 262.2770 14.51896991861289
X-SAT                   
1 37389U 11015C   26190.26996047  .00000377  00000+0  17766-3 0  9995
2 37389  98.3525 166.2428 0012756 280.2549  79.7192 14.25213829790822
GCOM-W1 (SHIZUKU)       
1 38337U 12025A   26189.87066221  .00000303  00000+0  77281-4 0  9996
2 38337  98.2024 130.0997 0001435  71.7849 356.0694 14.57086661752190
NUSTAR                  
1 38358U 12031A   26190.25002315  .00003418  00000+0  15721-3 0  9994
2 38358   6.0249 228.6310 0007102  75.9260 306.9576 15.09008486  1302
NEOSSAT                 
1 39089U 13009D   26189.95166463  .00000108  00000+0  51904-4 0  9999
2 39089  98.4187   9.4677 0011050 175.3376 184.7915 14.35834076699864
BRITE-AUSTRIA           
1 39091U 13009F   26189.93945591  .00000114  00000+0  53493-4 0  9999
2 39091  98.4005   8.8378 0010385 168.5831 191.5593 14.36550763700171
IRIS                    
1 39197U 13033A   26189.51171484  .00000796  00000+0  97230-4 0  9992
2 39197  97.9322  28.7216 0023022 248.1255 111.7512 14.85927927703546
HISAKI (SPRINT-A)       
1 39253U 13049A   26190.22323717  .00000091  00000+0  32668-4 0  9992
2 39253  29.7198 107.9742 0136925 195.5049 164.1300 13.55546391634414
CASSIOPE                
1 39265U 13055A   26190.25606435  .00033027 -45748-6  35511-3 0  9996
2 39265  80.9140  39.8788 0284311 348.0376  11.4191 15.27134878671032
STSAT-3                 
1 39422U 13066G   26190.21847606  .00001399  00000+0  10878-3 0  9996
2 39422  97.6200 159.7521 0009030 330.5888  29.4828 15.02868863687510
